IRIDIUM 155             
1 43573U 18061E   21274.87526512  .00000125  00000-0  37561-4 0  9994
2 43573  86.3963  55.2069 0001858 105.2739 254.8662 14.34218895166927
IRIDIUM 154             
1 43574U 18061F   21275.48414752  .00000114  00000-0  33690-4 0  9992
2 43574  86.3969  55.0039 0002106  85.6531 274.4905 14.34218995167062
IRIDIUM 163             
1 43575U 18061G   21274.90695673  .00000122  00000-0  36335-4 0  9990
2 43575  86.3965  55.2130 0002586  93.1086 267.0406 14.34218548166959
IRIDIUM 156             
1 43576U 18061H   21275.43973975  .00000064  00000-0  15625-4 0  9998
2 43576  86.3965  54.9953 0002285 100.3038 259.8415 14.34214797167012
IRIDIUM 164             
1 43577U 18061J   21274.86257794  .00000122  00000-0  36354-4 0  9996
2 43577  86.3967  55.2510 0002228  87.5548 272.5903 14.34218639166985
IRIDIUM 159             
1 43578U 18061K   21274.90063893  .00000125  00000-0  37419-4 0  9993
2 43578  86.3965  55.2078 0002130  87.7299 272.4141 14.34220175166958
IRIDIUM 180             
1 43922U 19002A   21274.83035211  .00000102  00000-0  29391-4 0  9992
2 43922  86.4020 352.1292 0002740  76.4447 283.7054 14.34219607142554
IRIDIUM 176             
1 43923U 19002B   21275.45955126  .00000253  00000-0  36229-4 0  9993
2 43923  86.6153 351.9008 0002357  93.6768 266.4719 14.72261219146375
IRIDIUM 168             
1 43924U 19002C   21274.75425335  .00000100  00000-0  28470-4 0  9990
2 43924  86.4022 352.1897 0002210  87.3256 272.8193 14.34217633142527
IRIDIUM 173             
1 43925U 19002D   21274.74156938  .00000099  00000-0  28160-4 0  9993
2 43925  86.4019 352.1539 0002275  89.6775 270.4681 14.34217779142504
IRIDIUM 169             
1 43926U 19002E   21275.39005559  .00000116  00000-0  31319-4 0  9998
2 43926  86.4279  23.4571 0003343 219.5479 140.5476 14.38608433143111
IRIDIUM 172             
1 43927U 19002F   21275.29336555  .00000098  00000-0  27861-4 0  9997
2 43927  86.4019 351.9262 0002301  87.3225 272.8234 14.34219047142590
IRIDIUM 175             
1 43928U 19002G   21274.70576229  .00000288  00000-0  41814-4 0  9992
2 43928  86.6156 352.0386 0002904  90.7207 269.4343 14.72257934146250
IRIDIUM 171             
1 43929U 19002H   21274.92550718  .00000097  00000-0  27579-4 0  9992
2 43929  86.4030 352.1951 0002193  87.6708 272.4739 14.34216669142538
IRIDIUM 170             
1 43930U 19002J   21274.78609816  .00000280  00000-0  40418-4 0  9993
2 43930  86.6153 352.1881 0002393  89.2324 270.9167 14.72256105146289
IRIDIUM 167             
1 43931U 19002K   21274.77961085  .00000106  00000-0  30755-4 0  9992
2 43931  86.4020 352.1478 0002504  78.7658 281.3819 14.34218228142514
